SPAWAR-CAL-O            
1 43766U 18099J   26068.73975788  .00021069  00000+0  69663-3 0  9999
2 43766  97.4452 132.0993 0007239 285.0670  74.9770 15.31356755398280
STARLINK-35508          
1 65912U 25225C   26068.54616619  .00024218  00000+0  82749-3 0  9998
2 65912  53.1584 166.5253 0001090 112.1029 248.0088 15.30186433 24386
